{"features":[{"properties":{"district":"Mojoroto","district_code":"id3571010","regency":"Kota Kediri"},"type":"Feature","geometry":{"coordinates":[[[[112.009758,-7.826990599999931],[112.0098,-7.8284],[112.0094,-7.8308],[112.0087,-7.8333],[112.0082,-7.8345],[112.0057,-7.8335],[112.0031,-7.8324],[112.0007,-7.8317],[111.9982,-7.8305],[111.9961,-7.8316],[111.9957,-7.8339],[111.9939,-7.8359],[111.9916,-7.8356],[111.9916,-7.8334],[111.9918,-7.8311],[111.9895,-7.8333],[111.9893,-7.8306],[111.9910,-7.8288],[111.9906,-7.8264],[111.9894,-7.8249],[111.9888,-7.8237],[111.9921,-7.8242],[111.9926,-7.8270],[111.9926,-7.8293],[111.9943,-7.8275],[111.9950,-7.8231],[111.9952,-7.8215],[111.9968,-7.8232],[111.9987,-7.8222],[112.0010,-7.8226],[112.0024,-7.8245],[112.0072,-7.8261],[112.009758,-7.826990599999931]]],[[[112.0083542000001,-7.815704299999936],[112.0085,-7.8184],[112.0087,-7.8204],[112.0089,-7.8209],[112.0091,-7.8214],[112.0091,-7.8216],[112.0094,-7.8225],[112.0094,-7.8233],[112.0094,-7.8236],[112.0094,-7.8243],[112.0098,-7.8270],[112.0072,-7.8261],[112.0024,-7.8245],[112.0010,-7.8226],[111.9987,-7.8222],[111.9968,-7.8232],[111.9952,-7.8215],[111.9955,-7.8202],[111.9951,-7.8181],[111.9947,-7.8162],[111.9925,-7.8146],[111.9942,-7.8118],[111.9967,-7.8124],[111.9998,-7.8125],[112.0019,-7.8128],[112.0035,-7.8139],[112.0067,-7.8150],[112.0083542000001,-7.815704299999936]]],[[[112.0082321000001,-7.834457399999962],[112.0077,-7.8358],[112.0062,-7.8389],[112.0055,-7.8401],[112.0036,-7.8425],[111.9952,-7.8404],[111.9926,-7.8397],[111.9890,-7.8392],[111.9894,-7.8361],[111.9895,-7.8333],[111.9918,-7.8311],[111.9916,-7.8334],[111.9916,-7.8356],[111.9939,-7.8359],[111.9957,-7.8339],[111.9961,-7.8316],[111.9982,-7.8305],[112.0007,-7.8317],[112.0031,-7.8324],[112.0057,-7.8335],[112.0082321000001,-7.834457399999962]]],[[[111.99488830000007,-7.802138299999967],[111.9953,-7.8038],[111.9946,-7.8061],[111.9943,-7.8084],[111.9919,-7.8099],[111.9897,-7.8107],[111.9894,-7.8085],[111.9876,-7.8057],[111.9880,-7.8035],[111.9857,-7.8034],[111.9832,-7.8043],[111.9824,-7.8025],[111.9826,-7.7998],[111.9837,-7.7984],[111.9865,-7.7971],[111.9878,-7.7946],[111.9910,-7.7934],[111.9910,-7.7949],[111.9900,-7.7969],[111.9901,-7.7988],[111.9902,-7.8009],[111.9921,-7.8017],[111.99488830000007,-7.802138299999967]]],[[[111.99015810000009,-7.815566099999955],[111.9892,-7.8179],[111.9906,-7.8196],[111.9893,-7.8218],[111.9883,-7.8245],[111.9857,-7.8260],[111.9828,-7.8275],[111.9824,-7.8274],[111.9818,-7.8272],[111.9810,-7.8268],[111.9801,-7.8263],[111.9794,-7.8259],[111.9780,-7.8252],[111.9763,-7.8247],[111.9750,-7.8244],[111.9736,-7.8243],[111.9738,-7.8234],[111.9753,-7.8217],[111.9774,-7.8213],[111.9797,-7.8213],[111.9822,-7.8207],[111.9842,-7.8204],[111.9853,-7.8175],[111.9868,-7.8154],[111.99015810000009,-7.815566099999955]]],[[[112.00283480000007,-7.771528099999955],[112.0054,-7.7726],[112.0060,-7.7797],[112.0062,-7.7828],[112.0032,-7.7817],[112.0016,-7.7807],[111.9993,-7.7813],[111.9960,-7.7805],[111.9936,-7.7799],[111.9919,-7.7792],[111.9917,-7.7774],[111.9956,-7.7746],[111.9964,-7.7743],[111.9974,-7.7715],[111.9986,-7.7716],[112.0013,-7.7711],[112.00283480000007,-7.771528099999955]]],[[[111.99063310000008,-7.781457299999943],[111.9908,-7.7842],[111.9928,-7.7862],[111.9923,-7.7883],[111.9925,-7.7910],[111.9910,-7.7934],[111.9878,-7.7946],[111.9865,-7.7971],[111.9837,-7.7984],[111.9816,-7.7971],[111.9794,-7.7946],[111.9778,-7.7927],[111.9788,-7.7915],[111.9795,-7.7902],[111.9800,-7.7898],[111.9811,-7.7892],[111.9820,-7.7886],[111.9823,-7.7879],[111.9827,-7.7867],[111.9830,-7.7854],[111.9832,-7.7842],[111.9833,-7.7833],[111.9834,-7.7823],[111.9835,-7.7809],[111.9843,-7.7810],[111.9855,-7.7812],[111.9863,-7.7812],[111.99063310000008,-7.781457299999943]]],[[[111.97657010000006,-7.793538599999977],[111.9766,-7.7951],[111.9762,-7.7980],[111.9765,-7.8007],[111.9774,-7.8031],[111.9771,-7.8051],[111.9741,-7.8061],[111.9720,-7.8074],[111.9714,-7.8096],[111.9736,-7.8089],[111.9742,-7.8105],[111.9722,-7.8121],[111.9711,-7.8138],[111.9706,-7.8161],[111.9670,-7.8170],[111.9640,-7.8167],[111.9603,-7.8168],[111.9560,-7.8167],[111.9556,-7.8166],[111.9555,-7.8164],[111.9555,-7.8163],[111.9554,-7.8162],[111.9553,-7.8160],[111.9553,-7.8158],[111.9547,-7.8144],[111.9545,-7.8132],[111.9544,-7.8116],[111.9544,-7.8105],[111.9546,-7.8089],[111.9548,-7.8077],[111.9550,-7.8059],[111.9554,-7.8009],[111.9563,-7.7967],[111.9626,-7.7948],[111.9671,-7.7920],[111.9713,-7.7911],[111.97657010000006,-7.793538599999977]]],[[[111.99522250000007,-7.821456599999976],[111.9950,-7.8231],[111.9943,-7.8275],[111.9926,-7.8293],[111.9926,-7.8270],[111.9921,-7.8242],[111.9888,-7.8237],[111.9883,-7.8245],[111.9893,-7.8218],[111.9906,-7.8196],[111.9892,-7.8179],[111.9902,-7.8156],[111.9925,-7.8146],[111.9947,-7.8162],[111.9951,-7.8181],[111.9955,-7.8202],[111.99522250000007,-7.821456599999976]]],[[[112.0086434000001,-7.810777399999949],[112.0083,-7.8132],[112.0083,-7.8145],[112.0075,-7.8153],[112.0052,-7.8146],[112.0030,-7.8129],[112.0008,-7.8124],[111.9980,-7.8126],[111.9957,-7.8121],[111.9933,-7.8111],[111.9943,-7.8084],[111.9946,-7.8061],[111.9953,-7.8038],[111.9949,-7.8021],[111.9974,-7.7985],[111.9997,-7.7961],[112.0026,-7.7937],[112.0041,-7.7929],[112.0068,-7.7923],[112.0094,-7.7920],[112.0100,-7.7963],[112.0099,-7.7993],[112.0100,-7.8018],[112.0098,-7.8044],[112.0094,-7.8070],[112.0088,-7.8099],[112.0086434000001,-7.810777399999949]]],[[[112.00619510000001,-7.782842599999981],[112.0087,-7.7880],[112.0084,-7.7900],[112.0080,-7.7904],[112.0052,-7.7908],[112.0030,-7.7907],[112.0011,-7.7906],[111.9979,-7.7896],[111.9953,-7.7913],[111.9922,-7.7920],[111.9923,-7.7894],[111.9927,-7.7872],[111.9917,-7.7853],[111.9904,-7.7825],[111.9913,-7.7789],[111.9926,-7.7795],[111.9948,-7.7803],[111.9981,-7.7807],[112.0005,-7.7814],[112.0026,-7.7809],[112.0055,-7.7826],[112.00619510000001,-7.782842599999981]]],[[[112.00921360000007,-7.790074799999957],[112.0094,-7.7920],[112.0068,-7.7923],[112.0041,-7.7929],[112.0026,-7.7937],[111.9997,-7.7961],[111.9974,-7.7985],[111.9949,-7.8021],[111.9921,-7.8017],[111.9902,-7.8009],[111.9901,-7.7988],[111.9900,-7.7969],[111.9910,-7.7949],[111.9910,-7.7934],[111.9940,-7.7920],[111.9966,-7.7900],[111.9993,-7.7900],[112.0026,-7.7907],[112.0037,-7.7908],[112.0064,-7.7907],[112.0084,-7.7900],[112.0091,-7.7892],[112.00921360000007,-7.790074799999957]]],[[[111.98863980000004,-7.81532],[111.9858,-7.8161],[111.9847,-7.8192],[111.9833,-7.8208],[111.9808,-7.8212],[111.9784,-7.8216],[111.9762,-7.8213],[111.9745,-7.8223],[111.9733,-7.8243],[111.9716,-7.8242],[111.9699,-7.8241],[111.9685,-7.8241],[111.9674,-7.8241],[111.9663,-7.8241],[111.9654,-7.8241],[111.9645,-7.8241],[111.9642,-7.8240],[111.9630,-7.8234],[111.9624,-7.8234],[111.9620,-7.8235],[111.9611,-7.8233],[111.9601,-7.8232],[111.9592,-7.8232],[111.9581,-7.8229],[111.9580,-7.8225],[111.9578,-7.8213],[111.9576,-7.8208],[111.9572,-7.8207],[111.9573,-7.8200],[111.9577,-7.8195],[111.9578,-7.8191],[111.9564,-7.8177],[111.9561,-7.8174],[111.9559,-7.8172],[111.9556,-7.8167],[111.9560,-7.8167],[111.9603,-7.8168],[111.9640,-7.8167],[111.9670,-7.8170],[111.9706,-7.8161],[111.9711,-7.8138],[111.9722,-7.8121],[111.9742,-7.8105],[111.9736,-7.8089],[111.9714,-7.8096],[111.9720,-7.8074],[111.9741,-7.8061],[111.9771,-7.8051],[111.9788,-7.8074],[111.9810,-7.8090],[111.9832,-7.8092],[111.9834,-7.8114],[111.9848,-7.8130],[111.9870,-7.8131],[111.9887,-7.8138],[111.98863980000004,-7.81532]]],[[[111.98274230000004,-7.797956499999941],[111.9825,-7.8009],[111.9825,-7.8035],[111.9844,-7.8037],[111.9868,-7.8029],[111.9879,-7.8045],[111.9883,-7.8072],[111.9894,-7.8096],[111.9908,-7.8098],[111.9938,-7.8098],[111.9942,-7.8118],[111.9925,-7.8146],[111.9902,-7.8156],[111.9887,-7.8138],[111.9870,-7.8131],[111.9848,-7.8130],[111.9834,-7.8114],[111.9832,-7.8092],[111.9810,-7.8090],[111.9788,-7.8074],[111.9771,-7.8051],[111.9774,-7.8031],[111.9765,-7.8007],[111.9762,-7.7980],[111.9766,-7.7951],[111.9766,-7.7935],[111.9784,-7.7935],[111.9800,-7.7955],[111.98274230000004,-7.797956499999941]]],[[[111.988448,-7.824519899999927],[111.9905,-7.8253],[111.9911,-7.8274],[111.9900,-7.8298],[111.9890,-7.8319],[111.9896,-7.8347],[111.9893,-7.8371],[111.9890,-7.8393],[111.9874,-7.8394],[111.9871,-7.8395],[111.9869,-7.8395],[111.9867,-7.8393],[111.9865,-7.8391],[111.9863,-7.8389],[111.9858,-7.8387],[111.9856,-7.8386],[111.9846,-7.8382],[111.9844,-7.8381],[111.9842,-7.8378],[111.9842,-7.8376],[111.9845,-7.8365],[111.9847,-7.8352],[111.9847,-7.8344],[111.9848,-7.8338],[111.9870,-7.8296],[111.9857,-7.8260],[111.9883,-7.8245],[111.988448,-7.824519899999927]]]],"type":"MultiPolygon"}},{"properties":{"district":"Kota Kediri","district_code":"id3571020","regency":"Kota Kediri"},"type":"Feature","geometry":{"coordinates":[[[[112.01996960000008,-7.797880099999929],[112.0190,-7.8007],[112.0189,-7.8015],[112.0184,-7.8036],[112.0183,-7.8042],[112.0178,-7.8064],[112.0174,-7.8077],[112.0169,-7.8100],[112.0169,-7.8100],[112.0167,-7.8109],[112.0165,-7.8119],[112.0165,-7.8123],[112.0161,-7.8147],[112.0159,-7.8160],[112.0159,-7.8165],[112.0158,-7.8173],[112.0155,-7.8177],[112.0144,-7.8176],[112.0133,-7.8172],[112.0136,-7.8165],[112.0138,-7.8159],[112.0142,-7.8145],[112.0146,-7.8135],[112.0152,-7.8117],[112.0141,-7.8115],[112.0126,-7.8113],[112.0111,-7.8111],[112.0111,-7.8110],[112.0111,-7.8096],[112.0111,-7.8090],[112.0111,-7.8080],[112.0111,-7.8073],[112.0111,-7.8069],[112.0119,-7.8069],[112.0128,-7.8069],[112.0130,-7.8060],[112.0129,-7.8055],[112.0129,-7.8053],[112.0133,-7.8032],[112.0146,-7.8036],[112.0152,-7.8010],[112.0156,-7.7989],[112.0159,-7.7975],[112.0160,-7.7965],[112.0161,-7.7959],[112.0177,-7.7967],[112.0185,-7.7971],[112.01996960000008,-7.797880099999929]]],[[[112.03578460000006,-7.812928599999964],[112.0357,-7.8132],[112.0356,-7.8135],[112.0348,-7.8156],[112.0346,-7.8161],[112.0344,-7.8164],[112.0341,-7.8172],[112.0337,-7.8180],[112.0335,-7.8183],[112.0332,-7.8188],[112.0332,-7.8188],[112.0331,-7.8190],[112.0330,-7.8193],[112.0325,-7.8204],[112.0322,-7.8205],[112.0320,-7.8204],[112.0310,-7.8201],[112.0296,-7.8196],[112.0287,-7.8195],[112.0286,-7.8199],[112.0280,-7.8214],[112.0280,-7.8214],[112.0276,-7.8213],[112.0274,-7.8218],[112.0269,-7.8217],[112.0261,-7.8218],[112.0257,-7.8226],[112.0256,-7.8226],[112.0255,-7.8231],[112.0253,-7.8238],[112.0247,-7.8237],[112.0241,-7.8235],[112.0237,-7.8234],[112.0232,-7.8233],[112.0229,-7.8232],[112.0226,-7.8231],[112.0227,-7.8228],[112.0229,-7.8219],[112.0230,-7.8212],[112.0218,-7.8208],[112.0203,-7.8205],[112.0191,-7.8202],[112.0191,-7.8202],[112.0194,-7.8189],[112.0195,-7.8183],[112.0197,-7.8172],[112.0197,-7.8172],[112.0204,-7.8173],[112.0206,-7.8171],[112.0213,-7.8170],[112.0231,-7.8167],[112.0241,-7.8167],[112.0242,-7.8162],[112.0243,-7.8159],[112.0244,-7.8155],[112.0246,-7.8146],[112.0248,-7.8141],[112.0249,-7.8137],[112.0250,-7.8136],[112.0252,-7.8136],[112.0255,-7.8139],[112.0270,-7.8145],[112.0291,-7.8152],[112.0304,-7.8156],[112.0307,-7.8148],[112.0309,-7.8142],[112.0311,-7.8137],[112.0311,-7.8136],[112.0312,-7.8133],[112.0314,-7.8128],[112.0318,-7.8117],[112.0334,-7.8118],[112.0358,-7.8128],[112.03578460000006,-7.812928599999964]]],[[[112.02448470000002,-7.799587499999973],[112.0259,-7.8041],[112.0255,-7.8050],[112.0249,-7.8071],[112.0246,-7.8078],[112.0242,-7.8088],[112.0238,-7.8101],[112.0238,-7.8102],[112.0237,-7.8105],[112.0231,-7.8103],[112.0229,-7.8109],[112.0220,-7.8107],[112.0218,-7.8106],[112.0216,-7.8117],[112.0206,-7.8125],[112.0206,-7.8126],[112.0204,-7.8132],[112.0202,-7.8145],[112.0201,-7.8151],[112.0200,-7.8156],[112.0199,-7.8162],[112.0197,-7.8172],[112.0197,-7.8172],[112.0195,-7.8183],[112.0193,-7.8183],[112.0182,-7.8181],[112.0171,-7.8180],[112.0157,-7.8178],[112.0158,-7.8172],[112.0159,-7.8164],[112.0161,-7.8148],[112.0163,-7.8135],[112.0165,-7.8119],[112.0166,-7.8115],[112.0169,-7.8103],[112.0169,-7.8100],[112.0172,-7.8087],[112.0175,-7.8076],[112.0181,-7.8051],[112.0183,-7.8039],[112.0187,-7.8025],[112.0191,-7.8008],[112.0190,-7.8007],[112.0200,-7.7979],[112.0210,-7.7981],[112.0224,-7.7988],[112.0235,-7.7993],[112.02448470000002,-7.799587499999973]]],[[[112.019074,-7.820370099999934],[112.0189,-7.8212],[112.0189,-7.8213],[112.0188,-7.8216],[112.0188,-7.8218],[112.0188,-7.8218],[112.0188,-7.8219],[112.0187,-7.8221],[112.0184,-7.8221],[112.0175,-7.8219],[112.0163,-7.8216],[112.0156,-7.8214],[112.0151,-7.8212],[112.0147,-7.8211],[112.0130,-7.8207],[112.0122,-7.8205],[112.0122,-7.8203],[112.0125,-7.8195],[112.0126,-7.8193],[112.0153,-7.8197],[112.0157,-7.8198],[112.0162,-7.8199],[112.0178,-7.8202],[112.0187,-7.8203],[112.019074,-7.820370099999934]]],[[[112.0171375000001,-7.829602299999976],[112.0170,-7.8299],[112.0169,-7.8303],[112.0168,-7.8307],[112.0167,-7.8313],[112.0167,-7.8317],[112.0169,-7.8321],[112.0172,-7.8328],[112.0172,-7.8328],[112.0172,-7.8332],[112.0174,-7.8338],[112.0178,-7.8342],[112.0182,-7.8343],[112.0184,-7.8344],[112.0190,-7.8348],[112.0192,-7.8348],[112.0195,-7.8348],[112.0200,-7.8349],[112.0204,-7.8351],[112.0209,-7.8353],[112.0210,-7.8353],[112.0215,-7.8354],[112.0219,-7.8357],[112.0222,-7.8358],[112.0231,-7.8361],[112.0235,-7.8362],[112.0241,-7.8363],[112.0247,-7.8364],[112.0252,-7.8363],[112.0254,-7.8363],[112.0255,-7.8363],[112.0256,-7.8364],[112.0255,-7.8366],[112.0251,-7.8367],[112.0246,-7.8367],[112.0245,-7.8368],[112.0245,-7.8368],[112.0244,-7.8368],[112.0243,-7.8368],[112.0241,-7.8368],[112.0240,-7.8372],[112.0238,-7.8372],[112.0234,-7.8373],[112.0220,-7.8373],[112.0218,-7.8372],[112.0212,-7.8371],[112.0202,-7.8393],[112.0199,-7.8392],[112.0196,-7.8391],[112.0192,-7.8390],[112.0191,-7.8390],[112.0190,-7.8389],[112.0175,-7.8383],[112.0166,-7.8375],[112.0163,-7.8374],[112.0161,-7.8380],[112.0158,-7.8380],[112.0153,-7.8379],[112.0147,-7.8375],[112.0144,-7.8374],[112.0138,-7.8374],[112.0133,-7.8375],[112.0129,-7.8376],[112.0123,-7.8374],[112.0119,-7.8373],[112.0115,-7.8371],[112.0110,-7.8368],[112.0110,-7.8361],[112.0110,-7.8352],[112.0110,-7.8345],[112.0108,-7.8342],[112.0106,-7.8339],[112.0107,-7.8330],[112.0106,-7.8330],[112.0099,-7.8329],[112.0098,-7.8329],[112.0092,-7.8328],[112.0087,-7.8333],[112.0094,-7.8308],[112.0098,-7.8284],[112.0104,-7.8287],[112.0109,-7.8287],[112.0112,-7.8289],[112.0114,-7.8290],[112.0117,-7.8289],[112.0120,-7.8291],[112.0123,-7.8292],[112.0130,-7.8293],[112.0138,-7.8295],[112.0146,-7.8296],[112.0160,-7.8297],[112.0163,-7.8295],[112.0168,-7.8294],[112.0171375000001,-7.829602299999976]]],[[[112.01123690000009,-7.823941199999979],[112.0123,-7.8244],[112.0129,-7.8246],[112.0144,-7.8253],[112.0145,-7.8253],[112.0143,-7.8260],[112.0141,-7.8272],[112.0153,-7.8273],[112.0170,-7.8274],[112.0176,-7.8275],[112.0177,-7.8275],[112.0175,-7.8285],[112.0174,-7.8290],[112.0173,-7.8290],[112.0173,-7.8291],[112.0171,-7.8296],[112.0168,-7.8294],[112.0163,-7.8295],[112.0160,-7.8297],[112.0146,-7.8296],[112.0138,-7.8295],[112.0130,-7.8293],[112.0123,-7.8292],[112.0120,-7.8291],[112.0117,-7.8289],[112.0114,-7.8290],[112.0112,-7.8289],[112.0109,-7.8287],[112.0104,-7.8287],[112.0098,-7.8284],[112.0098,-7.8270],[112.0094,-7.8243],[112.0094,-7.8236],[112.0101,-7.8236],[112.0104,-7.8238],[112.0105,-7.8237],[112.0106,-7.8237],[112.0108,-7.8238],[112.0111,-7.8239],[112.01123690000009,-7.823941199999979]]],[[[112.01567720000003,-7.817769599999963],[112.0171,-7.8180],[112.0182,-7.8181],[112.0193,-7.8183],[112.0195,-7.8183],[112.0194,-7.8189],[112.0191,-7.8202],[112.0191,-7.8204],[112.0187,-7.8203],[112.0178,-7.8202],[112.0162,-7.8199],[112.0157,-7.8198],[112.0153,-7.8197],[112.0126,-7.8193],[112.0129,-7.8183],[112.0132,-7.8176],[112.0132,-7.8176],[112.0144,-7.8176],[112.0155,-7.8177],[112.01567720000003,-7.817769599999963]]],[[[112.01772060000008,-7.85186559999994],[112.0176,-7.8522],[112.0172,-7.8523],[112.0168,-7.8522],[112.0162,-7.8526],[112.0159,-7.8534],[112.0155,-7.8542],[112.0149,-7.8556],[112.0149,-7.8572],[112.0160,-7.8593],[112.0167,-7.8615],[112.0110,-7.8618],[112.0108,-7.8583],[112.0113,-7.8557],[112.0106,-7.8560],[112.0103,-7.8561],[112.0097,-7.8560],[112.0089,-7.8558],[112.0077,-7.8555],[112.0077,-7.8555],[112.0076,-7.8555],[112.0056,-7.8549],[112.0043,-7.8545],[112.0039,-7.8543],[112.0035,-7.8542],[112.0014,-7.8533],[111.9999,-7.8527],[112.0027,-7.8489],[112.0044,-7.8462],[112.0044,-7.8456],[112.0057,-7.8444],[112.0071,-7.8445],[112.0078,-7.8443],[112.0081,-7.8444],[112.0080,-7.8445],[112.0084,-7.8448],[112.0084,-7.8449],[112.0085,-7.8451],[112.0091,-7.8454],[112.0102,-7.8458],[112.0110,-7.8461],[112.0129,-7.8468],[112.0130,-7.8478],[112.0128,-7.8483],[112.0127,-7.8498],[112.0135,-7.8501],[112.0164,-7.8513],[112.01772060000008,-7.85186559999994]]],[[[112.030915,-7.814133799999979],[112.0308,-7.8145],[112.0304,-7.8156],[112.0303,-7.8156],[112.0279,-7.8148],[112.0256,-7.8139],[112.0254,-7.8138],[112.0252,-7.8135],[112.0250,-7.8137],[112.0249,-7.8138],[112.0247,-7.8145],[112.0245,-7.8154],[112.0244,-7.8156],[112.0242,-7.8162],[112.0241,-7.8166],[112.0232,-7.8167],[112.0223,-7.8167],[112.0213,-7.8170],[112.0206,-7.8172],[112.0201,-7.8173],[112.0197,-7.8170],[112.0199,-7.8158],[112.0201,-7.8152],[112.0202,-7.8145],[112.0203,-7.8139],[112.0205,-7.8131],[112.0206,-7.8125],[112.0215,-7.8126],[112.0218,-7.8106],[112.0218,-7.8106],[112.0224,-7.8108],[112.0229,-7.8109],[112.0237,-7.8105],[112.0238,-7.8102],[112.0238,-7.8102],[112.0238,-7.8101],[112.0244,-7.8084],[112.0248,-7.8073],[112.0250,-7.8065],[112.0257,-7.8045],[112.0261,-7.8045],[112.0294,-7.8083],[112.0303,-7.8137],[112.030915,-7.814133799999979]]],[[[112.0202177000001,-7.839265],[112.0202,-7.8393],[112.0204,-7.8393],[112.0204,-7.8393],[112.0207,-7.8395],[112.0220,-7.8397],[112.0223,-7.8400],[112.0220,-7.8409],[112.0220,-7.8409],[112.0222,-7.8409],[112.0224,-7.8410],[112.0228,-7.8412],[112.0237,-7.8415],[112.0239,-7.8416],[112.0245,-7.8418],[112.0252,-7.8420],[112.0269,-7.8424],[112.0281,-7.8427],[112.0299,-7.8430],[112.0300,-7.8430],[112.0300,-7.8432],[112.0306,-7.8433],[112.0304,-7.8446],[112.0303,-7.8452],[112.0303,-7.8458],[112.0313,-7.8462],[112.0322,-7.8465],[112.0324,-7.8466],[112.0330,-7.8468],[112.0339,-7.8472],[112.0338,-7.8490],[112.0341,-7.8496],[112.0343,-7.8497],[112.0351,-7.8500],[112.0351,-7.8506],[112.0350,-7.8508],[112.0349,-7.8511],[112.0352,-7.8513],[112.0353,-7.8514],[112.0356,-7.8515],[112.0362,-7.8518],[112.0370,-7.8521],[112.0375,-7.8524],[112.0374,-7.8526],[112.0376,-7.8527],[112.0373,-7.8537],[112.0369,-7.8540],[112.0364,-7.8539],[112.0354,-7.8536],[112.0345,-7.8532],[112.0326,-7.8525],[112.0319,-7.8523],[112.0318,-7.8523],[112.0309,-7.8520],[112.0306,-7.8526],[112.0306,-7.8526],[112.0305,-7.8525],[112.0302,-7.8524],[112.0297,-7.8522],[112.0298,-7.8514],[112.0294,-7.8513],[112.0292,-7.8510],[112.0290,-7.8509],[112.0286,-7.8506],[112.0284,-7.8505],[112.0280,-7.8501],[112.0278,-7.8497],[112.0278,-7.8496],[112.0273,-7.8492],[112.0272,-7.8487],[112.0268,-7.8485],[112.0263,-7.8479],[112.0263,-7.8480],[112.0248,-7.8474],[112.0250,-7.8466],[112.0250,-7.8464],[112.0251,-7.8458],[112.0247,-7.8456],[112.0230,-7.8450],[112.0218,-7.8447],[112.0208,-7.8448],[112.0203,-7.8447],[112.0192,-7.8442],[112.0186,-7.8437],[112.0183,-7.8436],[112.0178,-7.8446],[112.0175,-7.8452],[112.0165,-7.8471],[112.0162,-7.8477],[112.0166,-7.8479],[112.0165,-7.8483],[112.0167,-7.8484],[112.0171,-7.8485],[112.0173,-7.8486],[112.0177,-7.8489],[112.0182,-7.8490],[112.0185,-7.8492],[112.0188,-7.8498],[112.0184,-7.8508],[112.0185,-7.8508],[112.0177,-7.8519],[112.0164,-7.8513],[112.0135,-7.8501],[112.0127,-7.8498],[112.0128,-7.8483],[112.0130,-7.8478],[112.0129,-7.8468],[112.0110,-7.8461],[112.0102,-7.8458],[112.0091,-7.8454],[112.0085,-7.8451],[112.0084,-7.8449],[112.0084,-7.8448],[112.0080,-7.8445],[112.0081,-7.8444],[112.0078,-7.8443],[112.0071,-7.8445],[112.0057,-7.8444],[112.0044,-7.8456],[112.0042,-7.8453],[112.0049,-7.8410],[112.0059,-7.8395],[112.0072,-7.8370],[112.0077,-7.8357],[112.0086,-7.8334],[112.0089,-7.8333],[112.0098,-7.8329],[112.0098,-7.8329],[112.0101,-7.8329],[112.0106,-7.8330],[112.0106,-7.8335],[112.0107,-7.8340],[112.0110,-7.8344],[112.0110,-7.8350],[112.0110,-7.8360],[112.0110,-7.8364],[112.0112,-7.8369],[112.0116,-7.8371],[112.0123,-7.8374],[112.0124,-7.8375],[112.0131,-7.8375],[112.0136,-7.8375],[112.0141,-7.8374],[112.0144,-7.8374],[112.0149,-7.8377],[112.0156,-7.8379],[112.0161,-7.8380],[112.0163,-7.8375],[112.0164,-7.8373],[112.0171,-7.8379],[112.0175,-7.8383],[112.0190,-7.8389],[112.0192,-7.8390],[112.0194,-7.8390],[112.0198,-7.8392],[112.0201,-7.8392],[112.0202177000001,-7.839265]]],[[[112.0142552000001,-7.814453699999945],[112.0139,-7.8155],[112.0137,-7.8159],[112.0118,-7.8154],[112.0112,-7.8153],[112.0110,-7.8162],[112.0110,-7.8175],[112.0114,-7.8177],[112.0116,-7.8177],[112.0116,-7.8180],[112.0128,-7.8183],[112.0129,-7.8183],[112.0126,-7.8193],[112.0125,-7.8195],[112.0122,-7.8203],[112.0122,-7.8205],[112.0120,-7.8209],[112.0108,-7.8208],[112.0086,-7.8201],[112.0084,-7.8171],[112.0083,-7.8145],[112.0088,-7.8134],[112.0100,-7.8136],[112.0105,-7.8137],[112.0114,-7.8138],[112.0131,-7.8142],[112.0142552000001,-7.814453699999945]]],[[[112.0110873000001,-7.811107099999958],[112.0126,-7.8113],[112.0132,-7.8114],[112.0151,-7.8117],[112.0149,-7.8126],[112.0143,-7.8145],[112.0123,-7.8140],[112.0110,-7.8138],[112.0102,-7.8136],[112.0092,-7.8134],[112.0083,-7.8133],[112.0085,-7.8118],[112.0092,-7.8109],[112.0109,-7.8111],[112.0110873000001,-7.811107099999958]]],[[[112.029739,-7.852191399999981],[112.0297,-7.8525],[112.0297,-7.8528],[112.0297,-7.8530],[112.0296,-7.8537],[112.0296,-7.8543],[112.0296,-7.8547],[112.0296,-7.8549],[112.0295,-7.8560],[112.0295,-7.8560],[112.0282,-7.8555],[112.0264,-7.8548],[112.0263,-7.8550],[112.0261,-7.8557],[112.0258,-7.8567],[112.0254,-7.8579],[112.0251,-7.8587],[112.0250,-7.8592],[112.0243,-7.8608],[112.0240,-7.8620],[112.0236,-7.8631],[112.0230,-7.8659],[112.0221,-7.8684],[112.0200,-7.8670],[112.0190,-7.8626],[112.0167,-7.8615],[112.0160,-7.8593],[112.0149,-7.8572],[112.0149,-7.8556],[112.0155,-7.8542],[112.0159,-7.8534],[112.0162,-7.8526],[112.0168,-7.8522],[112.0172,-7.8523],[112.0176,-7.8522],[112.0177,-7.8519],[112.0185,-7.8508],[112.0184,-7.8508],[112.0188,-7.8498],[112.0185,-7.8492],[112.0182,-7.8490],[112.0177,-7.8489],[112.0173,-7.8486],[112.0171,-7.8485],[112.0167,-7.8484],[112.0165,-7.8483],[112.0166,-7.8479],[112.0162,-7.8477],[112.0165,-7.8471],[112.0175,-7.8452],[112.0178,-7.8446],[112.0183,-7.8436],[112.0186,-7.8437],[112.0192,-7.8442],[112.0203,-7.8447],[112.0208,-7.8448],[112.0218,-7.8447],[112.0230,-7.8450],[112.0247,-7.8456],[112.0251,-7.8458],[112.0250,-7.8464],[112.0250,-7.8466],[112.0248,-7.8474],[112.0263,-7.8480],[112.0263,-7.8479],[112.0268,-7.8485],[112.0272,-7.8487],[112.0273,-7.8492],[112.0278,-7.8496],[112.0278,-7.8497],[112.0280,-7.8501],[112.0284,-7.8505],[112.0286,-7.8506],[112.0290,-7.8509],[112.0292,-7.8510],[112.0294,-7.8513],[112.0298,-7.8514],[112.029739,-7.852191399999981]]],[[[112.0119830000001,-7.821058099999959],[112.0119,-7.8213],[112.0118,-7.8217],[112.0117,-7.8221],[112.0115,-7.8228],[112.0113,-7.8238],[112.0112,-7.8239],[112.0109,-7.8239],[112.0107,-7.8237],[112.0106,-7.8237],[112.0104,-7.8238],[112.0103,-7.8237],[112.0094,-7.8234],[112.0094,-7.8229],[112.0093,-7.8223],[112.0091,-7.8216],[112.0090,-7.8211],[112.0088,-7.8208],[112.0108,-7.8208],[112.0119830000001,-7.821058099999959]]],[[[112.0160466000001,-7.792700599999932],[112.0160,-7.7950],[112.0160,-7.7956],[112.0160,-7.7957],[112.0161,-7.7959],[112.0160,-7.7965],[112.0159,-7.7975],[112.0156,-7.7989],[112.0152,-7.8010],[112.0146,-7.8036],[112.0133,-7.8032],[112.0129,-7.8053],[112.0129,-7.8055],[112.0130,-7.8060],[112.0128,-7.8069],[112.0119,-7.8069],[112.0111,-7.8069],[112.0111,-7.8073],[112.0111,-7.8080],[112.0111,-7.8090],[112.0111,-7.8096],[112.0111,-7.8110],[112.0109,-7.8111],[112.0092,-7.8109],[112.0088,-7.8099],[112.0094,-7.8070],[112.0098,-7.8044],[112.0100,-7.8018],[112.0099,-7.7993],[112.0100,-7.7963],[112.0094,-7.7920],[112.0092,-7.7901],[112.0097,-7.7901],[112.0104,-7.7902],[112.0106,-7.7902],[112.0109,-7.7898],[112.0135,-7.7906],[112.0160,-7.7916],[112.0160466000001,-7.792700599999932]]],[[[112.01376690000006,-7.815926199999979],[112.0136,-7.8165],[112.0133,-7.8172],[112.0132,-7.8176],[112.0132,-7.8176],[112.0128,-7.8183],[112.0116,-7.8180],[112.0116,-7.8177],[112.0114,-7.8177],[112.0110,-7.8175],[112.0110,-7.8162],[112.0112,-7.8153],[112.0118,-7.8154],[112.0137,-7.8159],[112.01376690000006,-7.815926199999979]]],[[[112.0187178000001,-7.822123199999965],[112.0186,-7.8228],[112.0185,-7.8235],[112.0184,-7.8238],[112.0183,-7.8242],[112.0183,-7.8243],[112.0183,-7.8245],[112.0182,-7.8248],[112.0180,-7.8257],[112.0179,-7.8262],[112.0179,-7.8265],[112.0177,-7.8275],[112.0176,-7.8275],[112.0170,-7.8274],[112.0153,-7.8273],[112.0141,-7.8272],[112.0143,-7.8260],[112.0145,-7.8253],[112.0144,-7.8253],[112.0129,-7.8246],[112.0123,-7.8244],[112.0112,-7.8239],[112.0115,-7.8229],[112.0117,-7.8221],[112.0117,-7.8219],[112.0119,-7.8214],[112.0120,-7.8211],[112.0120,-7.8209],[112.0122,-7.8205],[112.0130,-7.8207],[112.0147,-7.8211],[112.0151,-7.8212],[112.0156,-7.8214],[112.0163,-7.8216],[112.0175,-7.8219],[112.0184,-7.8221],[112.0187,-7.8221],[112.0187178000001,-7.822123199999965]]]],"type":"MultiPolygon"}},{"properties":{"district":"Pesantren","district_code":"id3571030","regency":"Kota Kediri"},"type":"Feature","geometry":{"coordinates":[[[[112.04394410000009,-7.833488799999941],[112.0438,-7.8339],[112.0437,-7.8343],[112.0434,-7.8351],[112.0433,-7.8351],[112.0426,-7.8358],[112.0421,-7.8367],[112.0413,-7.8385],[112.0413,-7.8385],[112.0412,-7.8390],[112.0410,-7.8391],[112.0408,-7.8392],[112.0406,-7.8397],[112.0404,-7.8397],[112.0399,-7.8396],[112.0396,-7.8395],[112.0392,-7.8392],[112.0382,-7.8391],[112.0375,-7.8391],[112.0373,-7.8388],[112.0368,-7.8385],[112.0364,-7.8384],[112.0360,-7.8381],[112.0354,-7.8380],[112.0347,-7.8379],[112.0342,-7.8377],[112.0340,-7.8375],[112.0339,-7.8376],[112.0336,-7.8376],[112.0334,-7.8376],[112.0331,-7.8376],[112.0327,-7.8374],[112.0319,-7.8372],[112.0315,-7.8371],[112.0318,-7.8360],[112.0320,-7.8347],[112.0323,-7.8335],[112.0324,-7.8325],[112.0323,-7.8323],[112.0323,-7.8321],[112.0324,-7.8316],[112.0325,-7.8312],[112.0323,-7.8310],[112.0322,-7.8308],[112.0315,-7.8307],[112.0312,-7.8307],[112.0312,-7.8303],[112.0313,-7.8296],[112.0314,-7.8293],[112.0315,-7.8286],[112.0319,-7.8286],[112.0327,-7.8289],[112.0337,-7.8294],[112.0340,-7.8296],[112.0360,-7.8304],[112.0371,-7.8308],[112.0379,-7.8311],[112.0394,-7.8317],[112.0403,-7.8320],[112.0414,-7.8325],[112.0429,-7.8331],[112.04394410000009,-7.833488799999941]]],[[[112.04273160000002,-7.827258299999926],[112.0443,-7.8279],[112.0452,-7.8283],[112.0457,-7.8288],[112.0467,-7.8291],[112.0482,-7.8297],[112.0487,-7.8300],[112.0490,-7.8300],[112.0490,-7.8300],[112.0489,-7.8305],[112.0482,-7.8322],[112.0480,-7.8328],[112.0467,-7.8329],[112.0459,-7.8325],[112.0445,-7.8320],[112.0439,-7.8335],[112.0434,-7.8333],[112.0428,-7.8330],[112.0410,-7.8323],[112.0396,-7.8317],[112.0385,-7.8313],[112.0371,-7.8308],[112.0362,-7.8305],[112.0349,-7.8299],[112.0338,-7.8295],[112.0333,-7.8292],[112.0321,-7.8287],[112.0315,-7.8285],[112.0316,-7.8277],[112.0316,-7.8274],[112.0302,-7.8269],[112.0296,-7.8264],[112.0289,-7.8262],[112.0288,-7.8262],[112.0291,-7.8249],[112.0291,-7.8249],[112.0304,-7.8254],[112.0308,-7.8244],[112.0308,-7.8243],[112.0317,-7.8246],[112.0318,-7.8246],[112.0323,-7.8236],[112.0335,-7.8237],[112.0339,-7.8238],[112.0343,-7.8239],[112.0346,-7.8241],[112.0350,-7.8243],[112.0354,-7.8243],[112.0358,-7.8244],[112.0359,-7.8243],[112.0361,-7.8243],[112.0366,-7.8243],[112.0368,-7.8242],[112.0371,-7.8245],[112.0371,-7.8245],[112.0373,-7.8249],[112.0378,-7.8248],[112.0389,-7.8253],[112.0391,-7.8254],[112.0398,-7.8260],[112.0407,-7.8263],[112.0409,-7.8264],[112.0408,-7.8266],[112.0426,-7.8272],[112.04273160000002,-7.827258299999926]]],[[[112.0651861,-7.851977799999929],[112.0656,-7.8527],[112.0658,-7.8531],[112.0664,-7.8539],[112.0666,-7.8542],[112.0664,-7.8547],[112.0665,-7.8554],[112.0666,-7.8558],[112.0666,-7.8560],[112.0660,-7.8585],[112.0659,-7.8604],[112.0673,-7.8615],[112.0685,-7.8625],[112.0697,-7.8637],[112.0708,-7.8650],[112.0711,-7.8654],[112.0722,-7.8665],[112.0725,-7.8669],[112.0730,-7.8676],[112.0736,-7.8686],[112.0733,-7.8692],[112.0733,-7.8700],[112.0724,-7.8726],[112.0724,-7.8728],[112.0715,-7.8727],[112.0710,-7.8729],[112.0702,-7.8726],[112.0700,-7.8729],[112.0697,-7.8740],[112.0693,-7.8750],[112.0690,-7.8749],[112.0685,-7.8729],[112.0670,-7.8699],[112.0660,-7.8683],[112.0648,-7.8675],[112.0635,-7.8669],[112.0633,-7.8668],[112.0622,-7.8664],[112.0606,-7.8657],[112.0601,-7.8655],[112.0594,-7.8653],[112.0580,-7.8651],[112.0571,-7.8653],[112.0562,-7.8650],[112.0553,-7.8646],[112.0538,-7.8639],[112.0532,-7.8637],[112.0531,-7.8637],[112.0528,-7.8634],[112.0523,-7.8632],[112.0517,-7.8629],[112.0514,-7.8627],[112.0519,-7.8619],[112.0516,-7.8616],[112.0508,-7.8610],[112.0502,-7.8604],[112.0502,-7.8596],[112.0501,-7.8589],[112.0502,-7.8578],[112.0503,-7.8567],[112.0507,-7.8556],[112.0507,-7.8555],[112.0519,-7.8527],[112.0527,-7.8504],[112.0530,-7.8495],[112.0533,-7.8488],[112.0536,-7.8489],[112.0547,-7.8499],[112.0550,-7.8499],[112.0559,-7.8499],[112.0570,-7.8507],[112.0576,-7.8513],[112.0578,-7.8514],[112.0582,-7.8513],[112.0588,-7.8510],[112.0591,-7.8510],[112.0601,-7.8514],[112.0605,-7.8516],[112.0607,-7.8518],[112.0613,-7.8523],[112.0618,-7.8525],[112.0626,-7.8524],[112.0633,-7.8519],[112.0635,-7.8516],[112.0642,-7.8513],[112.0647,-7.851],[112.0649,-7.8512],[112.0651,-7.8514],[112.0651861,-7.851977799999929]]],[[[112.04654390000007,-7.845100899999977],[112.0464,-7.8453],[112.0461,-7.8458],[112.0458,-7.8467],[112.0452,-7.8481],[112.0447,-7.8489],[112.0446,-7.8493],[112.0451,-7.8495],[112.0460,-7.8499],[112.0466,-7.8503],[112.0465,-7.8506],[112.0462,-7.8514],[112.0461,-7.8518],[112.0460,-7.8520],[112.0460,-7.8521],[112.0459,-7.8524],[112.0465,-7.8529],[112.0467,-7.8535],[112.0472,-7.8540],[112.0486,-7.8546],[112.0507,-7.8556],[112.0503,-7.8567],[112.0502,-7.8578],[112.0501,-7.8589],[112.0502,-7.8596],[112.0496,-7.8602],[112.0468,-7.8601],[112.0451,-7.8595],[112.0435,-7.8588],[112.0434,-7.8588],[112.0415,-7.8578],[112.0389,-7.8566],[112.0388,-7.8563],[112.0371,-7.8547],[112.0371,-7.8541],[112.0373,-7.8537],[112.0376,-7.8527],[112.0374,-7.8526],[112.0375,-7.8524],[112.0370,-7.8521],[112.0362,-7.8518],[112.0356,-7.8515],[112.0353,-7.8514],[112.0352,-7.8513],[112.0349,-7.8511],[112.0350,-7.8508],[112.0354,-7.8510],[112.0355,-7.8505],[112.0357,-7.8499],[112.0361,-7.8483],[112.0364,-7.8479],[112.0365,-7.8477],[112.0369,-7.8478],[112.0370,-7.8473],[112.0379,-7.8465],[112.0379,-7.8465],[112.0383,-7.8454],[112.0391,-7.8448],[112.0396,-7.8448],[112.0399,-7.8440],[112.0401,-7.8437],[112.0405,-7.8427],[112.0406,-7.8423],[112.0409,-7.8426],[112.0411,-7.8431],[112.0417,-7.8435],[112.0425,-7.8439],[112.0439,-7.8445],[112.0446,-7.8448],[112.0450,-7.8441],[112.0453,-7.8440],[112.0457,-7.8442],[112.0458,-7.8444],[112.0460,-7.8447],[112.0464,-7.8449],[112.04654390000007,-7.845100899999977]]],[[[112.02955780000002,-7.854897499999936],[112.0305,-7.8553],[112.0308,-7.8554],[112.0310,-7.8553],[112.0315,-7.8553],[112.0320,-7.8554],[112.0323,-7.8556],[112.0325,-7.8557],[112.0329,-7.8559],[112.0332,-7.8560],[112.0334,-7.8561],[112.0340,-7.8563],[112.0342,-7.8566],[112.0348,-7.8570],[112.0349,-7.8574],[112.0351,-7.8576],[112.0353,-7.8579],[112.0362,-7.8584],[112.0363,-7.8584],[112.0366,-7.8579],[112.0366,-7.8576],[112.0364,-7.8574],[112.0363,-7.8573],[112.0365,-7.8566],[112.0367,-7.8558],[112.0369,-7.8553],[112.0388,-7.8564],[112.0394,-7.8569],[112.0420,-7.8581],[112.0434,-7.8588],[112.0439,-7.8590],[112.0451,-7.8595],[112.0493,-7.8610],[112.0499,-7.8603],[112.0501,-7.8607],[112.0516,-7.8614],[112.0516,-7.8617],[112.0515,-7.8627],[112.0516,-7.8628],[112.0520,-7.8631],[112.0526,-7.8633],[112.0529,-7.8636],[112.0532,-7.8637],[112.0534,-7.8637],[112.0547,-7.8644],[112.0559,-7.8649],[112.0564,-7.8651],[112.0579,-7.8651],[112.0579,-7.8654],[112.0572,-7.8656],[112.0566,-7.8656],[112.0567,-7.8664],[112.0565,-7.8676],[112.0557,-7.8693],[112.0554,-7.8704],[112.0557,-7.8707],[112.0557,-7.8715],[112.0516,-7.8689],[112.0499,-7.8683],[112.0476,-7.8678],[112.0433,-7.8712],[112.0424,-7.8717],[112.0379,-7.8710],[112.0331,-7.8700],[112.0255,-7.8690],[112.0221,-7.8684],[112.0230,-7.8659],[112.0236,-7.8631],[112.0240,-7.8620],[112.0243,-7.8608],[112.0250,-7.8592],[112.0251,-7.8587],[112.0254,-7.8579],[112.0258,-7.8567],[112.0261,-7.8557],[112.0263,-7.8550],[112.0264,-7.8548],[112.0282,-7.8555],[112.0295,-7.8560],[112.0295,-7.8560],[112.02955780000002,-7.854897499999936]]],[[[112.03329410000003,-7.818812399999956],[112.0340,-7.8191],[112.0345,-7.8193],[112.0356,-7.8198],[112.0363,-7.8200],[112.0371,-7.8202],[112.0380,-7.8202],[112.0387,-7.8207],[112.0390,-7.8208],[112.0393,-7.8211],[112.0398,-7.8215],[112.0404,-7.8219],[112.0407,-7.8220],[112.0410,-7.8223],[112.0413,-7.8224],[112.0417,-7.8224],[112.0422,-7.8227],[112.0429,-7.8230],[112.0432,-7.8231],[112.0433,-7.8234],[112.0434,-7.8235],[112.0434,-7.8240],[112.0433,-7.8256],[112.0433,-7.8259],[112.0427,-7.8273],[112.0424,-7.8271],[112.0408,-7.8265],[112.0407,-7.8263],[112.0402,-7.8261],[112.0399,-7.8257],[112.0389,-7.8254],[112.0389,-7.8253],[112.0377,-7.8250],[112.0370,-7.8247],[112.0371,-7.8245],[112.0370,-7.8243],[112.0368,-7.8242],[112.0363,-7.8243],[112.0359,-7.8243],[112.0359,-7.8243],[112.0356,-7.8244],[112.0352,-7.8244],[112.0346,-7.8242],[112.0344,-7.8241],[112.0339,-7.8238],[112.0336,-7.8237],[112.0324,-7.8236],[112.0322,-7.8239],[112.0318,-7.8247],[112.0311,-7.8244],[112.0308,-7.8243],[112.0304,-7.8254],[112.0300,-7.8252],[112.0291,-7.8249],[112.0291,-7.8250],[112.0287,-7.8262],[112.0275,-7.8260],[112.0269,-7.8259],[112.0265,-7.8258],[112.0258,-7.8256],[112.0257,-7.8256],[112.0252,-7.8255],[112.0249,-7.8255],[112.0249,-7.8253],[112.0249,-7.8252],[112.0249,-7.8245],[112.0249,-7.8238],[112.0250,-7.8237],[112.0254,-7.8235],[112.0256,-7.8226],[112.0257,-7.8226],[112.0259,-7.8223],[112.0267,-7.8220],[112.0273,-7.8218],[112.0274,-7.8218],[112.0279,-7.8214],[112.0280,-7.8214],[112.0283,-7.8206],[112.0286,-7.8198],[112.0288,-7.8193],[112.0308,-7.8201],[112.0318,-7.8204],[112.0320,-7.8205],[112.0324,-7.8206],[112.0327,-7.8201],[112.0331,-7.8190],[112.0331,-7.8189],[112.0332,-7.8188],[112.03329410000003,-7.818812399999956]]],[[[112.02255810000008,-7.823115],[112.0225,-7.8231],[112.0225,-7.8231],[112.0221,-7.8230],[112.0219,-7.8230],[112.0217,-7.8229],[112.0215,-7.8229],[112.0215,-7.8230],[112.0217,-7.8237],[112.0218,-7.8237],[112.0217,-7.8241],[112.0216,-7.8248],[112.0216,-7.8250],[112.0209,-7.8249],[112.0204,-7.8249],[112.0200,-7.8248],[112.0192,-7.8247],[112.0183,-7.8245],[112.0183,-7.8245],[112.0183,-7.8242],[112.0183,-7.8242],[112.0184,-7.8237],[112.0186,-7.8229],[112.0187,-7.8223],[112.0188,-7.8219],[112.0188,-7.8218],[112.0188,-7.8218],[112.0188,-7.8216],[112.0189,-7.8213],[112.0189,-7.8212],[112.0191,-7.8204],[112.0191,-7.8202],[112.0191,-7.8202],[112.0203,-7.8205],[112.0218,-7.8208],[112.0230,-7.8212],[112.0229,-7.8219],[112.0227,-7.8228],[112.02255810000008,-7.823115]]],[[[112.04340560000003,-7.835081499999944],[112.0440,-7.8352],[112.0451,-7.8356],[112.0458,-7.8358],[112.0460,-7.8361],[112.0463,-7.8364],[112.0464,-7.8370],[112.0467,-7.8371],[112.0469,-7.8370],[112.0472,-7.8371],[112.0476,-7.8371],[112.0477,-7.8374],[112.0481,-7.8375],[112.0481,-7.8377],[112.0484,-7.8380],[112.0488,-7.8381],[112.0492,-7.8381],[112.0495,-7.8382],[112.0501,-7.8381],[112.0504,-7.8383],[112.0508,-7.8385],[112.0511,-7.8387],[112.0512,-7.8391],[112.0509,-7.8395],[112.0508,-7.8399],[112.0504,-7.8409],[112.0504,-7.8413],[112.0505,-7.8415],[112.0510,-7.8419],[112.0511,-7.8424],[112.0509,-7.8430],[112.0507,-7.8435],[112.0498,-7.8456],[112.0495,-7.8455],[112.0488,-7.8452],[112.0488,-7.8458],[112.0492,-7.8461],[112.0494,-7.8465],[112.0496,-7.8467],[112.0500,-7.8470],[112.0503,-7.8471],[112.0501,-7.8473],[112.0499,-7.8472],[112.0496,-7.8470],[112.0494,-7.8469],[112.0491,-7.8469],[112.0485,-7.8466],[112.0482,-7.8463],[112.0478,-7.8458],[112.0477,-7.8455],[112.0473,-7.8452],[112.0468,-7.8452],[112.0465,-7.8451],[112.0461,-7.8447],[112.0459,-7.8446],[112.0458,-7.8443],[112.0455,-7.8442],[112.0451,-7.8439],[112.0446,-7.8448],[112.0446,-7.8448],[112.0436,-7.8444],[112.0423,-7.8437],[112.0412,-7.8432],[112.0410,-7.8429],[112.0408,-7.8424],[112.0406,-7.8423],[112.0401,-7.8421],[112.0392,-7.8419],[112.0398,-7.8397],[112.0399,-7.8396],[112.0404,-7.8397],[112.0406,-7.8397],[112.0408,-7.8392],[112.0410,-7.8391],[112.0412,-7.8390],[112.0413,-7.8385],[112.0413,-7.8385],[112.0421,-7.8367],[112.0426,-7.8358],[112.0433,-7.8351],[112.04340560000003,-7.835081499999944]]],[[[112.06819230000008,-7.836496599999975],[112.0710,-7.8375],[112.0707,-7.8404],[112.0700,-7.8407],[112.0693,-7.8422],[112.0679,-7.8416],[112.0673,-7.8411],[112.0663,-7.8407],[112.0651,-7.8403],[112.0639,-7.8397],[112.0616,-7.8388],[112.0592,-7.8379],[112.0556,-7.8364],[112.0554,-7.8352],[112.0557,-7.8346],[112.0557,-7.8344],[112.0558,-7.8343],[112.0558,-7.8343],[112.0560,-7.8340],[112.0560,-7.8340],[112.0579,-7.8362],[112.0623,-7.8356],[112.0674,-7.8363],[112.0677,-7.8364],[112.06819230000008,-7.836496599999975]]],[[[112.05687000000012,-7.84358],[112.0578,-7.8440],[112.0587,-7.8446],[112.0613,-7.8458],[112.0621,-7.8461],[112.0636,-7.8469],[112.0642,-7.8473],[112.0648,-7.8482],[112.0654,-7.8488],[112.0658,-7.8492],[112.0671,-7.8501],[112.0681,-7.8507],[112.0691,-7.8508],[112.0687,-7.8518],[112.0683,-7.8524],[112.0652,-7.8520],[112.0651,-7.8514],[112.0649,-7.8512],[112.0647,-7.851],[112.0642,-7.8513],[112.0635,-7.8516],[112.0633,-7.8519],[112.0626,-7.8524],[112.0618,-7.8525],[112.0613,-7.8523],[112.0607,-7.8518],[112.0605,-7.8516],[112.0601,-7.8514],[112.0591,-7.8510],[112.0588,-7.8510],[112.0582,-7.8513],[112.0578,-7.8514],[112.0576,-7.8513],[112.0570,-7.8507],[112.0559,-7.8499],[112.0550,-7.8499],[112.0547,-7.8499],[112.0536,-7.8489],[112.0530,-7.8484],[112.0521,-7.8480],[112.0510,-7.8476],[112.0506,-7.8473],[112.0503,-7.8471],[112.0500,-7.8470],[112.0496,-7.8467],[112.0494,-7.8465],[112.0492,-7.8461],[112.0488,-7.8458],[112.0488,-7.8452],[112.0495,-7.8455],[112.0498,-7.8456],[112.0507,-7.8435],[112.0509,-7.8430],[112.0511,-7.8424],[112.0510,-7.8419],[112.0514,-7.8421],[112.0524,-7.8422],[112.0533,-7.8428],[112.0540,-7.8429],[112.0545,-7.8428],[112.0553,-7.8430],[112.0562,-7.8433],[112.05687000000012,-7.84358]]],[[[112.0341161,-7.837517499999933],[112.0345,-7.8378],[112.0352,-7.8379],[112.0356,-7.8381],[112.0361,-7.8382],[112.0366,-7.8384],[112.0369,-7.8387],[112.0375,-7.8389],[112.0376,-7.8391],[112.0388,-7.8391],[112.0394,-7.8394],[112.0398,-7.8396],[112.0392,-7.8418],[112.0401,-7.8421],[112.0401,-7.8421],[112.0406,-7.8423],[112.0405,-7.8427],[112.0401,-7.8437],[112.0399,-7.8440],[112.0396,-7.8448],[112.0391,-7.8448],[112.0383,-7.8454],[112.0379,-7.8465],[112.0379,-7.8465],[112.0370,-7.8473],[112.0369,-7.8478],[112.0365,-7.8477],[112.0364,-7.8479],[112.0361,-7.8483],[112.0357,-7.8499],[112.0355,-7.8505],[112.0354,-7.8510],[112.0351,-7.8506],[112.0351,-7.8500],[112.0343,-7.8497],[112.0341,-7.8496],[112.0338,-7.8490],[112.0339,-7.8472],[112.0330,-7.8468],[112.0324,-7.8466],[112.0322,-7.8465],[112.0313,-7.8462],[112.0303,-7.8458],[112.0303,-7.8452],[112.0304,-7.8446],[112.0306,-7.8433],[112.0306,-7.8432],[112.0308,-7.8418],[112.0309,-7.8414],[112.0311,-7.8401],[112.0313,-7.8390],[112.0317,-7.8388],[112.0326,-7.8388],[112.0333,-7.8384],[112.0331,-7.8376],[112.0332,-7.8376],[112.0335,-7.8376],[112.0338,-7.8376],[112.0340,-7.8376],[112.0341161,-7.837517499999933]]],[[[112.02510260000008,-7.828681299999971],[112.0251,-7.8293],[112.0243,-7.8293],[112.0231,-7.8292],[112.0228,-7.8292],[112.0229,-7.8279],[112.0229,-7.8276],[112.0230,-7.8263],[112.0231,-7.8254],[112.0235,-7.8254],[112.0238,-7.8254],[112.0242,-7.8254],[112.0249,-7.8255],[112.0249,-7.8256],[112.0249,-7.8260],[112.0249,-7.8264],[112.0249,-7.8268],[112.0249,-7.8274],[112.0250,-7.8280],[112.02510260000008,-7.828681299999971]]],[[[112.05225960000007,-7.829897899999935],[112.0530,-7.8302],[112.0548,-7.8323],[112.0551,-7.8327],[112.0552,-7.8330],[112.0542,-7.8335],[112.0545,-7.8337],[112.0550,-7.8339],[112.0556,-7.8342],[112.0558,-7.8344],[112.0557,-7.8345],[112.0557,-7.8346],[112.0550,-7.8362],[112.0577,-7.8373],[112.0592,-7.8380],[112.0583,-7.8402],[112.0569,-7.8436],[112.0562,-7.8433],[112.0553,-7.8430],[112.0545,-7.8428],[112.0540,-7.8429],[112.0533,-7.8428],[112.0524,-7.8422],[112.0514,-7.8421],[112.0510,-7.8419],[112.0505,-7.8415],[112.0504,-7.8413],[112.0504,-7.8409],[112.0508,-7.8399],[112.0509,-7.8395],[112.0512,-7.8391],[112.0511,-7.8387],[112.0508,-7.8385],[112.0504,-7.8383],[112.0501,-7.8381],[112.0495,-7.8382],[112.0492,-7.8381],[112.0488,-7.8381],[112.0484,-7.8380],[112.0481,-7.8377],[112.0481,-7.8375],[112.0477,-7.8374],[112.0476,-7.8371],[112.0472,-7.8371],[112.0469,-7.8370],[112.0467,-7.8371],[112.0464,-7.8370],[112.0463,-7.8364],[112.0460,-7.8361],[112.0458,-7.8358],[112.0451,-7.8356],[112.0440,-7.8352],[112.0434,-7.8351],[112.0437,-7.8343],[112.0438,-7.8339],[112.0439,-7.8335],[112.0445,-7.8320],[112.0452,-7.8323],[112.0460,-7.8326],[112.0478,-7.8333],[112.0481,-7.8326],[112.0483,-7.8320],[112.0490,-7.8300],[112.0492,-7.8302],[112.0494,-7.8308],[112.0494,-7.8313],[112.0495,-7.8317],[112.0496,-7.8318],[112.0497,-7.8318],[112.0497,-7.8318],[112.0498,-7.8316],[112.0500,-7.8312],[112.0504,-7.8313],[112.0507,-7.8315],[112.0508,-7.8316],[112.0511,-7.8317],[112.0512,-7.8314],[112.0513,-7.8309],[112.0511,-7.8305],[112.0511,-7.8303],[112.0514,-7.8296],[112.05225960000007,-7.829897899999935]]],[[[112.02804890000004,-7.836404499999958],[112.0282,-7.8364],[112.0283,-7.8364],[112.0289,-7.8365],[112.0293,-7.8366],[112.0299,-7.8367],[112.0303,-7.8367],[112.0308,-7.8369],[112.0313,-7.8370],[112.0315,-7.8370],[112.0316,-7.8371],[112.0323,-7.8373],[112.0331,-7.8376],[112.0331,-7.8376],[112.0333,-7.8384],[112.0326,-7.8388],[112.0317,-7.8388],[112.0313,-7.8390],[112.0311,-7.8401],[112.0309,-7.8414],[112.0308,-7.8418],[112.0306,-7.8432],[112.0306,-7.8433],[112.0300,-7.8432],[112.0300,-7.8430],[112.0299,-7.8430],[112.0281,-7.8427],[112.0269,-7.8424],[112.0252,-7.8420],[112.0245,-7.8418],[112.0239,-7.8416],[112.0237,-7.8415],[112.0228,-7.8412],[112.0224,-7.8410],[112.0222,-7.8409],[112.0220,-7.8409],[112.0220,-7.8409],[112.0223,-7.8400],[112.0220,-7.8397],[112.0207,-7.8395],[112.0204,-7.8393],[112.0204,-7.8393],[112.0202,-7.8393],[112.0202,-7.8393],[112.0212,-7.8371],[112.0218,-7.8372],[112.0220,-7.8373],[112.0234,-7.8373],[112.0238,-7.8372],[112.0240,-7.8372],[112.0241,-7.8368],[112.0243,-7.8368],[112.0244,-7.8368],[112.0245,-7.8368],[112.0245,-7.8368],[112.0246,-7.8367],[112.0251,-7.8367],[112.0255,-7.8366],[112.0256,-7.8364],[112.0257,-7.8364],[112.0264,-7.8364],[112.0268,-7.8367],[112.0273,-7.8365],[112.0277,-7.8363],[112.0280,-7.8364],[112.02804890000004,-7.836404499999958]]],[[[112.02250820000006,-7.823117],[112.0226,-7.8231],[112.0229,-7.8232],[112.0232,-7.8233],[112.0237,-7.8234],[112.0241,-7.8235],[112.0247,-7.8237],[112.0250,-7.8238],[112.0249,-7.8243],[112.0249,-7.8247],[112.0249,-7.8253],[112.0249,-7.8255],[112.0241,-7.8254],[112.0238,-7.8254],[112.0231,-7.8253],[112.0230,-7.8263],[112.0230,-7.8266],[112.0229,-7.8279],[112.0228,-7.8284],[112.0228,-7.8293],[112.0219,-7.8293],[112.0212,-7.8293],[112.0209,-7.8303],[112.0206,-7.8303],[112.0205,-7.8303],[112.0198,-7.8301],[112.0195,-7.8300],[112.0192,-7.8299],[112.0187,-7.8297],[112.0176,-7.8291],[112.0173,-7.8290],[112.0174,-7.8290],[112.0175,-7.8285],[112.0177,-7.8275],[112.0179,-7.8265],[112.0179,-7.8262],[112.0180,-7.8257],[112.0182,-7.8248],[112.0183,-7.8245],[112.0189,-7.8246],[112.0200,-7.8249],[112.0201,-7.8249],[112.0205,-7.8249],[112.0209,-7.8249],[112.0216,-7.8251],[112.0216,-7.8248],[112.0217,-7.8239],[112.0218,-7.8237],[112.0214,-7.8236],[112.0215,-7.8230],[112.0215,-7.8229],[112.0219,-7.8230],[112.0219,-7.8230],[112.0224,-7.8231],[112.0225,-7.8231],[112.02250820000006,-7.823117]]],[[[112.0756487000001,-7.837102],[112.0759,-7.8385],[112.0765,-7.8387],[112.0765,-7.8395],[112.0768,-7.8399],[112.0773,-7.8401],[112.0778,-7.8402],[112.0782,-7.8403],[112.0783,-7.8408],[112.0784,-7.8411],[112.0784,-7.8415],[112.0791,-7.8421],[112.0804,-7.8427],[112.0808,-7.8426],[112.0810,-7.8439],[112.0808,-7.8441],[112.0803,-7.8463],[112.0802,-7.8463],[112.0787,-7.8466],[112.0785,-7.8471],[112.0782,-7.8481],[112.0781,-7.8481],[112.0776,-7.8492],[112.0775,-7.8492],[112.0770,-7.8490],[112.0759,-7.8485],[112.0745,-7.8479],[112.0728,-7.8470],[112.0721,-7.8467],[112.0722,-7.8462],[112.0716,-7.8458],[112.0695,-7.8452],[112.0682,-7.8470],[112.0685,-7.8473],[112.0681,-7.8483],[112.0680,-7.8486],[112.0678,-7.8490],[112.0661,-7.8485],[112.0648,-7.8482],[112.0642,-7.8473],[112.0636,-7.8469],[112.0621,-7.8461],[112.0613,-7.8458],[112.0587,-7.8446],[112.0578,-7.8440],[112.0569,-7.8436],[112.0583,-7.8402],[112.0592,-7.8380],[112.0596,-7.8381],[112.0628,-7.8393],[112.0647,-7.8401],[112.0657,-7.8405],[112.0672,-7.8411],[112.0676,-7.8413],[112.0685,-7.8418],[112.0699,-7.8409],[112.0702,-7.8401],[112.0708,-7.8405],[112.0725,-7.8415],[112.0725,-7.8405],[112.0731,-7.8393],[112.0735,-7.8383],[112.0740,-7.8373],[112.0744,-7.8369],[112.0746,-7.8365],[112.0752,-7.8368],[112.0757,-7.8370],[112.0756487000001,-7.837102]]],[[[112.02879220000011,-7.826201099999935],[112.0289,-7.8262],[112.0296,-7.8264],[112.0302,-7.8269],[112.0316,-7.8274],[112.0316,-7.8277],[112.0315,-7.8285],[112.0314,-7.8287],[112.0314,-7.8294],[112.0313,-7.8300],[112.0312,-7.8305],[112.0311,-7.8307],[112.0309,-7.8306],[112.0294,-7.8303],[112.0279,-7.8300],[112.0278,-7.8299],[112.0263,-7.8296],[112.0259,-7.8295],[112.0253,-7.8294],[112.0251,-7.8287],[112.0250,-7.8280],[112.0249,-7.8274],[112.0249,-7.8268],[112.0249,-7.8264],[112.0249,-7.8260],[112.0249,-7.8256],[112.0249,-7.8255],[112.0252,-7.8255],[112.0257,-7.8256],[112.0258,-7.8256],[112.0265,-7.8258],[112.0269,-7.8259],[112.0275,-7.8260],[112.0287,-7.8262],[112.02879220000011,-7.826201099999935]]],[[[112.04654390000007,-7.845100899999977],[112.0468,-7.8452],[112.0473,-7.8452],[112.0477,-7.8455],[112.0478,-7.8458],[112.0482,-7.8463],[112.0485,-7.8466],[112.0491,-7.8469],[112.0494,-7.8469],[112.0496,-7.8470],[112.0499,-7.8472],[112.0501,-7.8473],[112.0503,-7.8471],[112.0506,-7.8473],[112.0510,-7.8476],[112.0521,-7.8480],[112.0530,-7.8484],[112.0533,-7.8488],[112.0530,-7.8495],[112.0527,-7.8504],[112.0519,-7.8527],[112.0507,-7.8555],[112.0507,-7.8556],[112.0486,-7.8546],[112.0472,-7.8540],[112.0467,-7.8535],[112.0465,-7.8529],[112.0459,-7.8524],[112.0460,-7.8521],[112.0460,-7.8520],[112.0461,-7.8518],[112.0462,-7.8514],[112.0465,-7.8506],[112.0466,-7.8503],[112.0460,-7.8499],[112.0451,-7.8495],[112.0446,-7.8493],[112.0447,-7.8489],[112.0452,-7.8481],[112.0458,-7.8467],[112.0461,-7.8458],[112.0464,-7.8453],[112.04654390000007,-7.845100899999977]]],[[[112.02284180000004,-7.829249299999958],[112.0231,-7.8292],[112.0243,-7.8293],[112.0251,-7.8293],[112.0253,-7.8294],[112.0259,-7.8295],[112.0263,-7.8296],[112.0278,-7.8299],[112.0279,-7.8300],[112.0294,-7.8303],[112.0309,-7.8306],[112.0311,-7.8307],[112.0313,-7.8307],[112.0319,-7.8308],[112.0322,-7.8309],[112.0323,-7.8311],[112.0324,-7.8315],[112.0324,-7.8317],[112.0323,-7.8323],[112.0324,-7.8324],[112.0323,-7.8332],[112.0321,-7.8343],[112.0319,-7.8357],[112.0316,-7.8365],[112.0315,-7.8370],[112.0313,-7.8370],[112.0308,-7.8369],[112.0303,-7.8367],[112.0299,-7.8367],[112.0293,-7.8366],[112.0289,-7.8365],[112.0283,-7.8364],[112.0282,-7.8364],[112.0280,-7.8364],[112.0278,-7.8363],[112.0275,-7.8364],[112.0269,-7.8367],[112.0266,-7.8366],[112.0262,-7.8364],[112.0256,-7.8364],[112.0255,-7.8363],[112.0252,-7.8363],[112.0247,-7.8364],[112.0241,-7.8363],[112.0237,-7.8363],[112.0233,-7.8362],[112.0225,-7.8359],[112.0220,-7.8358],[112.0218,-7.8356],[112.0212,-7.8353],[112.0209,-7.8353],[112.0207,-7.8352],[112.0203,-7.8350],[112.0197,-7.8349],[112.0193,-7.8348],[112.0192,-7.8348],[112.0185,-7.8347],[112.0183,-7.8343],[112.0180,-7.8342],[112.0175,-7.8339],[112.0172,-7.8335],[112.0172,-7.8328],[112.0172,-7.8328],[112.0170,-7.8324],[112.0169,-7.8321],[112.0167,-7.8314],[112.0168,-7.8310],[112.0169,-7.8303],[112.0170,-7.8300],[112.0171,-7.8298],[112.0172,-7.8295],[112.0173,-7.8291],[112.0175,-7.8291],[112.0183,-7.8296],[112.0191,-7.8298],[112.0194,-7.8299],[112.0196,-7.8300],[112.0203,-7.8302],[112.0205,-7.8303],[112.0209,-7.8303],[112.0211,-7.8303],[112.0212,-7.8293],[112.0224,-7.8293],[112.02284180000004,-7.829249299999958]]],[[[112.037142,-7.854088799999943],[112.0372,-7.8541],[112.0369,-7.8553],[112.0367,-7.8558],[112.0365,-7.8566],[112.0363,-7.8573],[112.0364,-7.8574],[112.0366,-7.8576],[112.0366,-7.8579],[112.0363,-7.8584],[112.0362,-7.8584],[112.0353,-7.8579],[112.0351,-7.8576],[112.0349,-7.8574],[112.0348,-7.8570],[112.0342,-7.8566],[112.0340,-7.8563],[112.0334,-7.8561],[112.0332,-7.8560],[112.0329,-7.8559],[112.0325,-7.8557],[112.0323,-7.8556],[112.0320,-7.8554],[112.0315,-7.8553],[112.0310,-7.8553],[112.0308,-7.8554],[112.0305,-7.8553],[112.0296,-7.8549],[112.0296,-7.8547],[112.0296,-7.8543],[112.0296,-7.8537],[112.0297,-7.8530],[112.0297,-7.8528],[112.0297,-7.8525],[112.0297,-7.8522],[112.0302,-7.8524],[112.0305,-7.8525],[112.0306,-7.8526],[112.0306,-7.8526],[112.0309,-7.8520],[112.0318,-7.8523],[112.0319,-7.8523],[112.0326,-7.8525],[112.0345,-7.8532],[112.0354,-7.8536],[112.0364,-7.8539],[112.0369,-7.8540],[112.037142,-7.854088799999943]]]],"type":"MultiPolygon"}}],"type":"FeatureCollection"}